--
--
NPP [+]                 
1 37849U 11061A   15221.17729652  .00000063  00000-0  50295-4 0  9994
2 37849  98.6998 159.5686 0000681  48.9028  62.7804 14.19565934195894
--
NPP [+]                 
1 37849U 11061A   15222.51900571  .00000045  00000-0  42184-4 0  9992
2 37849  98.6998 160.8869 0000630  49.9682  74.5730 14.19566094196082
--
NPP [+]                 
1 37849U 11061A   15223.83786311 -.00000008  00000-0  17029-4 0  9992
2 37849  98.6999 162.1828 0000577  51.1834 329.4993 14.19566085196271
--
NPP [+]                 
1 37849U 11061A   15225.19824829  .00000001  00000-0  21279-4 0  9994
2 37849  98.7001 163.5194 0000546  55.1934  73.7367 14.19566235196460
--
NPP [+]                 
1 37849U 11061A   15226.53419630  .00000034  00000-0  36900-4 0  9996
2 37849  98.7001 164.8321 0000516  58.8990  53.4658 14.19566504196653
--
NPP [+]                 
1 37849U 11061A   15227.86437307  .00000026  00000-0  33095-4 0  9997
2 37849  98.7002 166.1391 0000479  62.3345   3.9889 14.19566692196843
--
NPP [+]                 
1 37849U 11061A   15229.14280834  .00000012  00000-0  26296-4 0  9991
2 37849  98.7003 167.3953 0000448  67.0482  48.9614 14.19566813197022
--
NPP [+]                 
1 37849U 11061A   15230.48103758  .00000020  00000-0  30116-4 0  9994
2 37849  98.7004 168.7103 0000426  72.7038  38.3940 14.19566982197214
--
NPP [+]                 
1 37849U 11061A   15231.80392520  .00000037  00000-0  38060-4 0  9992
2 37849  98.7005 170.0102 0000422  79.5372 308.2916 14.19567194197401
--
NPP [+]                 
1 37849U 11061A   15232.93432860  .00000045  00000-0  42192-4 0  9999
2 37849  98.7006 171.1210 0000423  86.1165 315.3194 14.19567430197566
--
NPP [+]                 
1 37849U 11061A   15235.89454534  .00000018  00000-0  29306-4 0  9991
2 37849  98.7008 174.0299 0000431  99.8342 301.0984 14.19567746197990
--
NPP [+]                 
1 37849U 11061A   15237.87359168  .00000042  00000-0  40338-4 0  9993
2 37849  98.7010 175.9748 0000469 107.6880 321.3539 14.19568130198268
--
NPP [+]                 
1 37849U 11061A   15239.22610262  .00000007  00000-0  23739-4 0  9996
2 37849  98.7012 177.3039 0000506 112.7619  24.3193 14.19568197198458
--
NPP [+]                 
1 37849U 11061A   15240.56222477  .00000003  00000-0  22193-4 0  9991
2 37849  98.7013 178.6169 0000551 115.6799   5.7342 14.19568328198644
--
NPP [+]                 
1 37849U 11061A   15241.68339454  .00000026  00000-0  32977-4 0  9995
2 37849  98.7014 179.7187 0000590 117.4837 330.3806 14.19568564198805
--
NPP [+]                 
1 37849U 11061A   15242.80427793  .00000033  00000-0  36123-4 0  9999
2 37849  98.7014 180.8202 0000628 119.1595 293.6930 14.19568724198962
--
NPP [+]                 
1 37849U 11061A   15244.23019321  .00000031  00000-0  35485-4 0  9990
2 37849  98.7016 182.2216 0000668 120.9498  14.8633 14.19568961199160
--
NPP [+]                 
1 37849U 11061A   15245.48465692  .00000008  00000-0  24351-4 0  9998
2 37849  98.7017 183.4544 0000699 122.8066 300.2666 14.19569018199346
--
NPP [+]                 
1 37849U 11061A   15245.83636911  .00000003  00000-0  22289-4 0  9994
2 37849  98.7018 183.8001 0000710 123.3375 296.1301 14.19569045199408
--
NPP [+]                 
1 37849U 11061A   15247.80865373  .00000052  00000-0  45247-4 0  9992
2 37849  98.7020 185.7385 0000786 123.8413 289.2091 14.19569509199671
--
NPP [+]                 
1 37849U 11061A   15248.86860110  .00000046  00000-0  42584-4 0  9997
2 37849  98.7021 186.7802 0000836 124.1436 302.6638 14.19569663199827
--
NPP [+]                 
1 37849U 11061A   15250.14684001  .00000011  00000-0  25638-4 0  9997
2 37849  98.7022 188.0365 0000871 124.4092 351.0954 14.19569729200002
--
NPP [+]                 
1 37849U 11061A   15251.48519883  .00000003  00000-0  22158-4 0  9995
2 37849  98.7023 189.3519 0000924 124.0829 347.1861 14.19569871200192
--
NPP [+]                 
1 37849U 11061A   15252.54361130  .00000031  00000-0  35343-4 0  9994
2 37849  98.7024 190.3921 0000964 123.7546 353.4340 14.19570130200347
--
NPP [+]                 
1 37849U 11061A   15253.87311478  .00000042  00000-0  40660-4 0  9991
2 37849  98.7025 191.6988 0001016 123.3375 304.3889 14.19570406200530
--
NPP [+]                 
1 37849U 11061A   15255.22563480  .00000005  00000-0  23219-4 0  9994
2 37849  98.7027 193.0282 0001063 123.1183  12.7049 14.19570469200720
--
NPP [+]                 
1 37849U 11061A   15256.48984535 -.00000013  00000-0  14569-4 0  9999
2 37849  98.7029 194.2707 0001102 122.6230 350.2499 14.19570513200907
--
NPP [+]                 
1 37849U 11061A   15257.54592758  .00000025  00000-0  32482-4 0  9995
2 37849  98.7031 195.3088 0001143 121.7297 345.1631 14.19570762201056
--
NPP [+]                 
1 37849U 11061A   15258.87912038  .00000045  00000-0  41747-4 0  9995
2 37849  98.7032 196.6191 0001190 121.2316 315.0452 14.19571030201242
--
NPP [+]                 
1 37849U 11061A   15258.94977008  .00000042  00000-0  40531-4 0  9998
2 37849  98.7033 196.6886 0001195 121.2239 315.9017 14.19571027201267
--
NPP [+]                 
1 37849U 11061A   15260.15539620  .00000026  00000-0  33162-4 0  9992
2 37849  98.7034 197.8736 0001237 120.7383 354.2156 14.19571150201421
--
NPP [+]                 
1 37849U 11061A   15261.48442913  .00000008  00000-0  24220-4 0  9992
2 37849  98.7036 199.1801 0001264 120.0827 303.0094 14.19571241201612
--
NPP [+]                 
1 37849U 11061A   15262.55008319  .00000032  00000-0  35704-4 0  9995
2 37849  98.7037 200.2276 0001304 118.8776 347.1258 14.19571478201765
--
NPP [+]                 
1 37849U 11061A   15263.80349005  .00000067  00000-0  52167-4 0  9994
2 37849  98.7038 201.4597 0001341 117.6853 270.1929 14.19571831201942
--
NPP [+]                 
1 37849U 11061A   15264.86651593  .00000056  00000-0  47027-4 0  9996
2 37849  98.7039 202.5047 0001379 116.8301 300.5378 14.19571982202095
--
NPP [+]                 
1 37849U 11061A   15266.14835012  .00000016  00000-0  28275-4 0  9999
2 37849  98.7041 203.7648 0001414 116.0517   8.3874 14.19572037202275
--
NPP [+]                 
1 37849U 11061A   15267.81477448  .00010567  00000-0  50235-2 0  9990
2 37849  98.6916 205.4004 0001660 113.4320 242.3420 14.19565381202514
--
NPP [+]                 
1 37849U 11061A   15268.18813209  .00003339  00000-0  16031-2 0  9995
2 37849  98.6901 205.7674 0001587 112.0820 350.6210 14.19555633202566
--
NPP [+]                 
1 37849U 11061A   15269.45783714  .00000074  00000-0  55620-4 0  9995
2 37849  98.6909 207.0139 0001560 114.6322 353.1198 14.19556415202743
--
NPP [+]                 
1 37849U 11061A   15270.51855571  .00000066  00000-0  51879-4 0  9998
2 37849  98.6910 208.0551 0001581 113.7429  11.6547 14.19556634202898
--
NPP [+]                 
1 37849U 11061A   15271.57174196  .00000006  00000-0  23556-4 0  9997
2 37849  98.6911 209.0889 0001601 112.6832 351.8885 14.19556688203044
--
NPP [+]                 
1 37849U 11061A   15272.90515976  .00000012  00000-0  26360-4 0  9993
2 37849  98.6914 210.3977 0001629 111.2458 323.7899 14.19556875203231
--
NPP [+]                 
1 37849U 11061A   15274.18093821  .00000073  00000-0  55071-4 0  9993
2 37849  98.6916 211.6500 0001674 109.5702   1.5367 14.19557289203412
--
NPP [+]                 
1 37849U 11061A   15275.52277883  .00000082  00000-0  59573-4 0  9995
2 37849  98.6918 212.9671 0001695 108.3022  16.2916 14.19557595203606
--
NPP [+]                 
1 37849U 11061A   15276.85003552  .00000044  00000-0  41636-4 0  9991
2 37849  98.6920 214.2700 0001725 106.8807 316.7132 14.19557715203797
--
NPP [+]                 
1 37849U 11061A   15276.91626661  .00000037  00000-0  38056-4 0  9994
2 37849  98.6920 214.3350 0001729 106.7294 295.1415 14.19557687203817
--
NPP [+]                 
1 37849U 11061A   15278.19732291  .00000033  00000-0  36460-4 0  9996
2 37849  98.6922 215.5926 0001763 105.1257 359.7764 14.19557882203980
--
NPP [+]                 
1 37849U 11061A   15278.88969497  .00000045  00000-0  41780-4 0  9996
2 37849  98.6923 216.2722 0001769 104.2407 296.9719 14.19558053204092
--
NPP [+]                 
1 37849U 11061A   15280.86586888  .00000056  00000-0  47115-4 0  9996
2 37849  98.6925 218.2122 0001800 101.8959 312.6850 14.19558503204363
--
NPP [+]                 
1 37849U 11061A   15280.93378380  .00000055  00000-0  46818-4 0  9998
2 37849  98.6925 218.2789 0001801 101.8515 299.6070 14.19558516204385
--
NPP [+]                 
1 37849U 11061A   15282.21936576  .00000017  00000-0  28423-4 0  9998
2 37849  98.6927 219.5409 0001821 100.5836  27.0248 14.19558606204553
--
NPP [+]                 
1 37849U 11061A   15283.48478791  .00000002  00000-0  21310-4 0  9990
2 37849  98.6930 220.7832 0001845  99.0744  11.7172 14.19558694204730
--
NPP [+]                 
1 37849U 11061A   15284.53215096  .00000026  00000-0  32758-4 0  9998
2 37849  98.6931 221.8115 0001863  97.7802 322.4521 14.19558915204889
--
NPP [+]                 
1 37849U 11061A   15285.86587992  .00000041  00000-0  40078-4 0  9993
2 37849  98.6934 223.1209 0001876  96.3308 295.9660 14.19559178205073
--
NPP [+]                 
1 37849U 11061A   15287.21926999  .00000025  00000-0  32226-4 0  9996
2 37849  98.6936 224.4496 0001885  94.8889   9.8932 14.19559339205268
--
NPP [+]                 
1 37849U 11061A   15288.35805374  .00000014  00000-0  27214-4 0  9994
2 37849  98.6939 225.5676 0001903  93.4164  67.7421 14.19559425205425
--
NPP [+]                 
1 37849U 11061A   15289.47681841  .00000046  00000-0  42529-4 0  9990
2 37849  98.6940 226.6660 0001912  91.8575  23.4304 14.19559703205585
--
NPP [+]                 
1 37849U 11061A   15290.52179949  .00000077  00000-0  57304-4 0  9990
2 37849  98.6942 227.6920 0001914  90.5849 321.9813 14.19560004205733
--
NPP [+]                 
1 37849U 11061A   15291.86349645  .00000069  00000-0  53547-4 0  9996
2 37849  98.6944 229.0094 0001907  88.9277 336.4052 14.19560285205929
